TOMORROW-S4             
1 62386U 24247K   26068.53305366  .00012677  00000+0  46927-3 0  9990
2 62386  44.9818 117.9996 0004434 210.4078 149.6548 15.27717249 67702
STARLINK-34074          
1 64099U 25110D   26068.26560855  .00009162  00000+0  32114-3 0  9997
2 64099  53.1611  29.0141 0001562  91.1646 268.9534 15.30194433 45813
